[{"OBJECT_NAME":"IRIDIUM 154","OBJECT_ID":"2018-061F","EPOCH":"2026-03-09T19:28:30.566496","MEAN_MOTION":14.34219109,"ECCENTRICITY":0.00022519,"INCLINATION":86.3916,"RA_OF_ASC_NODE":98.3738,"ARG_OF_PERICENTER":97.8524,"MEAN_ANOMALY":262.2928,"EPHEMERIS_TYPE":0,"CLASSIFICATION_TYPE":"U","NORAD_CAT_ID":43574,"ELEMENT_SET_NO":999,"REV_AT_EPOCH":39916,"BSTAR":1.1681552e-5,"MEAN_MOTION_DOT":5.3e-7,"MEAN_MOTION_DDOT":0},{"OBJECT_NAME":"CZ-6A DEB","OBJECT_ID":"2024-140NR","EPOCH":"2026-03-09T13:50:30.024960","MEAN_MOTION":14.28048152,"ECCENTRICITY":0.0032655,"INCLINATION":89.007,"RA_OF_ASC_NODE":286.0018,"ARG_OF_PERICENTER":110.3333,"MEAN_ANOMALY":250.1375,"EPHEMERIS_TYPE":0,"CLASSIFICATION_TYPE":"U","NORAD_CAT_ID":61099,"ELEMENT_SET_NO":999,"REV_AT_EPOCH":7954,"BSTAR":0.0013539,"MEAN_MOTION_DOT":3.394e-5,"MEAN_MOTION_DDOT":0}]
